[{"OBJECT_NAME":"STARLINK-32245","OBJECT_ID":"2024-222V","EPOCH":"2026-03-09T12:41:04.639488","MEAN_MOTION":15.27577866,"ECCENTRICITY":0.0001484,"INCLINATION":42.9989,"RA_OF_ASC_NODE":137.1483,"ARG_OF_PERICENTER":283.7594,"MEAN_ANOMALY":76.3092,"EPHEMERIS_TYPE":0,"CLASSIFICATION_TYPE":"U","NORAD_CAT_ID":62133,"ELEMENT_SET_NO":999,"REV_AT_EPOCH":7288,"BSTAR":0.00082597,"MEAN_MOTION_DOT":0.00022535,"MEAN_MOTION_DDOT":0},{"OBJECT_NAME":"KUIPER-00208","OBJECT_ID":"2026-030M","EPOCH":"2026-03-09T16:08:08.024640","MEAN_MOTION":15.32208734,"ECCENTRICITY":0.00155248,"INCLINATION":51.8846,"RA_OF_ASC_NODE":219.6993,"ARG_OF_PERICENTER":57.3146,"MEAN_ANOMALY":302.9333,"EPHEMERIS_TYPE":0,"CLASSIFICATION_TYPE":"U","NORAD_CAT_ID":67775,"ELEMENT_SET_NO":999,"REV_AT_EPOCH":508,"BSTAR":0.0013882708,"MEAN_MOTION_DOT":0.00043852,"MEAN_MOTION_DDOT":0}]
